[{"OBJECT_NAME":"SITRO-AIS 8 (ANOKHIN)","OBJECT_ID":"2023-091AD","EPOCH":"2026-03-09T23:44:40.058592","MEAN_MOTION":15.29359179,"ECCENTRICITY":0.0012509,"INCLINATION":97.5169,"RA_OF_ASC_NODE":133.2823,"ARG_OF_PERICENTER":92.0171,"MEAN_ANOMALY":268.2501,"EPHEMERIS_TYPE":0,"CLASSIFICATION_TYPE":"U","NORAD_CAT_ID":57193,"ELEMENT_SET_NO":999,"REV_AT_EPOCH":14927,"BSTAR":0.00064982524,"MEAN_MOTION_DOT":0.00018494,"MEAN_MOTION_DDOT":0},{"OBJECT_NAME":"STARLINK-33972","OBJECT_ID":"2025-095D","EPOCH":"2026-03-09T08:09:54.320256","MEAN_MOTION":15.27582978,"ECCENTRICITY":1.693e-5,"INCLINATION":42.9977,"RA_OF_ASC_NODE":178.2585,"ARG_OF_PERICENTER":193.4438,"MEAN_ANOMALY":166.6409,"EPHEMERIS_TYPE":0,"CLASSIFICATION_TYPE":"U","NORAD_CAT_ID":63893,"ELEMENT_SET_NO":999,"REV_AT_EPOCH":4773,"BSTAR":0.0011528106,"MEAN_MOTION_DOT":0.000316,"MEAN_MOTION_DDOT":0}]
